[{"OBJECT_NAME":"STARLINK-3813","OBJECT_ID":"2022-049AH","EPOCH":"2025-08-26T21:27:52.587360","MEAN_MOTION":15.08840123,"ECCENTRICITY":0.00013414,"INCLINATION":53.2171,"RA_OF_ASC_NODE":203.5928,"ARG_OF_PERICENTER":89.3766,"MEAN_ANOMALY":270.738,"EPHEMERIS_TYPE":0,"CLASSIFICATION_TYPE":"U","NORAD_CAT_ID":52482,"ELEMENT_SET_NO":999,"REV_AT_EPOCH":18298,"BSTAR":6.2705578e-5,"MEAN_MOTION_DOT":7.1e-6,"MEAN_MOTION_DDOT":0},{"OBJECT_NAME":"STARLINK-3875","OBJECT_ID":"2022-049AJ","EPOCH":"2025-08-26T04:14:32.438112","MEAN_MOTION":15.08833125,"ECCENTRICITY":0.00013252,"INCLINATION":53.2165,"RA_OF_ASC_NODE":206.8124,"ARG_OF_PERICENTER":83.4321,"MEAN_ANOMALY":276.6822,"EPHEMERIS_TYPE":0,"CLASSIFICATION_TYPE":"U","NORAD_CAT_ID":52483,"ELEMENT_SET_NO":999,"REV_AT_EPOCH":18411,"BSTAR":8.7204262e-5,"MEAN_MOTION_DOT":1.1e-5,"MEAN_MOTION_DDOT":0},{"OBJECT_NAME":"STARLINK-3887","OBJECT_ID":"2022-049AK","EPOCH":"2025-08-26T05:11:29.793120","MEAN_MOTION":15.08837002,"ECCENTRICITY":0.00013355,"INCLINATION":53.2163,"RA_OF_ASC_NODE":216.6348,"ARG_OF_PERICENTER":86.3406,"MEAN_ANOMALY":273.7739,"EPHEMERIS_TYPE":0,"CLASSIFICATION_TYPE":"U","NORAD_CAT_ID":52484,"ELEMENT_SET_NO":999,"REV_AT_EPOCH":18274,"BSTAR":-3.4242866e-5,"MEAN_MOTION_DOT":-8.33e-6,"MEAN_MOTION_DDOT":0},{"OBJECT_NAME":"STARLINK-3913","OBJECT_ID":"2022-049AL","EPOCH":"2025-08-26T15:11:39.224832","MEAN_MOTION":15.08842828,"ECCENTRICITY":0.00015218,"INCLINATION":53.2166,"RA_OF_ASC_NODE":204.7639,"ARG_OF_PERICENTER":95.1442,"MEAN_ANOMALY":264.9724,"EPHEMERIS_TYPE":0,"CLASSIFICATION_TYPE":"U","NORAD_CAT_ID":52485,"ELEMENT_SET_NO":999,"REV_AT_EPOCH":18294,"BSTAR":0.00012593826,"MEAN_MOTION_DOT":1.717e-5,"MEAN_MOTION_DDOT":0},{"OBJECT_NAME":"STARLINK-3918","OBJECT_ID":"2022-049AM","EPOCH":"2025-08-26T16:08:35.348640","MEAN_MOTION":15.08841341,"ECCENTRICITY":0.000134,"INCLINATION":53.2167,"RA_OF_ASC_NODE":214.586,"ARG_OF_PERICENTER":83.2969,"MEAN_ANOMALY":276.8175,"EPHEMERIS_TYPE":0,"CLASSIFICATION_TYPE":"U","NORAD_CAT_ID":52486,"ELEMENT_SET_NO":999,"REV_AT_EPOCH":18281,"BSTAR":4.170813e-5,"MEAN_MOTION_DOT":3.76e-6,"MEAN_MOTION_DDOT":0},{"OBJECT_NAME":"STARLINK-3902","OBJECT_ID":"2022-049AN","EPOCH":"2025-08-26T21:49:05.161728","MEAN_MOTION":15.08840528,"ECCENTRICITY":0.00013586,"INCLINATION":53.217,"RA_OF_ASC_NODE":203.6308,"ARG_OF_PERICENTER":81.9621,"MEAN_ANOMALY":278.1525,"EPHEMERIS_TYPE":0,"CLASSIFICATION_TYPE":"U","NORAD_CAT_ID":52487,"ELEMENT_SET_NO":999,"REV_AT_EPOCH":18422,"BSTAR":1.4123596e-5,"MEAN_MOTION_DOT":-6.3e-7,"MEAN_MOTION_DDOT":0},{"OBJECT_NAME":"STARLINK-3892","OBJECT_ID":"2022-049AP","EPOCH":"2025-08-26T16:03:19.207584","MEAN_MOTION":15.08833492,"ECCENTRICITY":0.00014581,"INCLINATION":53.2171,"RA_OF_ASC_NODE":214.6018,"ARG_OF_PERICENTER":87.2825,"MEAN_ANOMALY":272.8334,"EPHEMERIS_TYPE":0,"CLASSIFICATION_TYPE":"U","NORAD_CAT_ID":52488,"ELEMENT_SET_NO":999,"REV_AT_EPOCH":18281,"BSTAR":2.3373912e-5,"MEAN_MOTION_DOT":8.4e-7,"MEAN_MOTION_DDOT":0},{"OBJECT_NAME":"STARLINK-3923","OBJECT_ID":"2022-049AQ","EPOCH":"2025-08-26T22:35:26.705184","MEAN_MOTION":15.08852863,"ECCENTRICITY":0.00013256,"INCLINATION":53.2162,"RA_OF_ASC_NODE":213.3808,"ARG_OF_PERICENTER":86.3125,"MEAN_ANOMALY":273.8019,"EPHEMERIS_TYPE":0,"CLASSIFICATION_TYPE":"U","NORAD_CAT_ID":52489,"ELEMENT_SET_NO":999,"REV_AT_EPOCH":18285,"BSTAR":5.4135041e-5,"MEAN_MOTION_DOT":5.74e-6,"MEAN_MOTION_DDOT":0},{"OBJECT_NAME":"STARLINK-3914","OBJECT_ID":"2022-049AR","EPOCH":"2025-08-26T22:47:20.454720","MEAN_MOTION":15.08849771,"ECCENTRICITY":0.00013972,"INCLINATION":53.2178,"RA_OF_ASC_NODE":203.3459,"ARG_OF_PERICENTER":88.9106,"MEAN_ANOMALY":271.2047,"EPHEMERIS_TYPE":0,"CLASSIFICATION_TYPE":"U","NORAD_CAT_ID":52490,"ELEMENT_SET_NO":999,"REV_AT_EPOCH":18299,"BSTAR":9.3815002e-5,"MEAN_MOTION_DOT":1.206e-5,"MEAN_MOTION_DDOT":0},{"OBJECT_NAME":"STARLINK-3908","OBJECT_ID":"2022-049AS","EPOCH":"2025-08-26T21:22:34.220640","MEAN_MOTION":15.08840726,"ECCENTRICITY":0.00015361,"INCLINATION":53.2162,"RA_OF_ASC_NODE":203.6093,"ARG_OF_PERICENTER":70.6528,"MEAN_ANOMALY":289.463,"EPHEMERIS_TYPE":0,"CLASSIFICATION_TYPE":"U","NORAD_CAT_ID":52491,"ELEMENT_SET_NO":999,"REV_AT_EPOCH":18298,"BSTAR":4.7249566e-5,"MEAN_MOTION_DOT":4.64e-6,"MEAN_MOTION_DDOT":0},{"OBJECT_NAME":"STARLINK-3916","OBJECT_ID":"2022-049AT","EPOCH":"2025-08-26T14:39:50.585760","MEAN_MOTION":15.08845281,"ECCENTRICITY":0.00013393,"INCLINATION":53.2167,"RA_OF_ASC_NODE":204.8633,"ARG_OF_PERICENTER":78.0194,"MEAN_ANOMALY":282.0949,"EPHEMERIS_TYPE":0,"CLASSIFICATION_TYPE":"U","NORAD_CAT_ID":52492,"ELEMENT_SET_NO":999,"REV_AT_EPOCH":18294,"BSTAR":5.9376052e-5,"MEAN_MOTION_DOT":6.57e-6,"MEAN_MOTION_DDOT":0},{"OBJECT_NAME":"STARLINK-3883","OBJECT_ID":"2022-049AU","EPOCH":"2025-08-26T22:52:39.936864","MEAN_MOTION":15.08842842,"ECCENTRICITY":0.00013128,"INCLINATION":53.2159,"RA_OF_ASC_NODE":203.327,"ARG_OF_PERICENTER":88.1394,"MEAN_ANOMALY":271.9748,"EPHEMERIS_TYPE":0,"CLASSIFICATION_TYPE":"U","NORAD_CAT_ID":52493,"ELEMENT_SET_NO":999,"REV_AT_EPOCH":18299,"BSTAR":7.8268089e-5,"MEAN_MOTION_DOT":9.58e-6,"MEAN_MOTION_DDOT":0},{"OBJECT_NAME":"STARLINK-3857","OBJECT_ID":"2022-049AV","EPOCH":"2025-08-26T22:20:51.951840","MEAN_MOTION":15.08836524,"ECCENTRICITY":0.00013696,"INCLINATION":53.2162,"RA_OF_ASC_NODE":203.4257,"ARG_OF_PERICENTER":86.2792,"MEAN_ANOMALY":273.8357,"EPHEMERIS_TYPE":0,"CLASSIFICATION_TYPE":"U","NORAD_CAT_ID":52494,"ELEMENT_SET_NO":999,"REV_AT_EPOCH":18299,"BSTAR":2.2560584e-5,"MEAN_MOTION_DOT":7.1e-7,"MEAN_MOTION_DDOT":0},{"OBJECT_NAME":"STARLINK-3871","OBJECT_ID":"2022-049AX","EPOCH":"2025-08-26T21:36:28.837728","MEAN_MOTION":15.08840734,"ECCENTRICITY":0.0001394,"INCLINATION":53.2169,"RA_OF_ASC_NODE":198.5632,"ARG_OF_PERICENTER":87.4148,"MEAN_ANOMALY":272.7003,"EPHEMERIS_TYPE":0,"CLASSIFICATION_TYPE":"U","NORAD_CAT_ID":52496,"ELEMENT_SET_NO":999,"REV_AT_EPOCH":18305,"BSTAR":2.8833238e-5,"MEAN_MOTION_DOT":1.71e-6,"MEAN_MOTION_DDOT":0},{"OBJECT_NAME":"STARLINK-3884","OBJECT_ID":"2022-049AY","EPOCH":"2025-08-26T22:31:28.350048","MEAN_MOTION":15.08845422,"ECCENTRICITY":0.00017146,"INCLINATION":53.2163,"RA_OF_ASC_NODE":203.3932,"ARG_OF_PERICENTER":67.6487,"MEAN_ANOMALY":292.4686,"EPHEMERIS_TYPE":0,"CLASSIFICATION_TYPE":"U","NORAD_CAT_ID":52497,"ELEMENT_SET_NO":999,"REV_AT_EPOCH":18299,"BSTAR":3.3146974e-5,"MEAN_MOTION_DOT":2.4e-6,"MEAN_MOTION_DDOT":0},{"OBJECT_NAME":"STARLINK-3925","OBJECT_ID":"2022-049AZ","EPOCH":"2025-08-26T07:37:14.592864","MEAN_MOTION":15.08843003,"ECCENTRICITY":0.00016888,"INCLINATION":53.2167,"RA_OF_ASC_NODE":196.1813,"ARG_OF_PERICENTER":76.6777,"MEAN_ANOMALY":283.4403,"EPHEMERIS_TYPE":0,"CLASSIFICATION_TYPE":"U","NORAD_CAT_ID":52498,"ELEMENT_SET_NO":999,"REV_AT_EPOCH":18303,"BSTAR":0.00012316435,"MEAN_MOTION_DOT":1.673e-5,"MEAN_MOTION_DDOT":0}]
