STARLINK-3813           
1 52482U 22049AH  25238.89435865  .00000710  00000+0  62706-4 0  9998
2 52482  53.2171 203.5928 0001341  89.3766 270.7380 15.08840123182986
STARLINK-3875           
1 52483U 22049AJ  25238.17676433  .00001100  00000+0  87204-4 0  9992
2 52483  53.2165 206.8124 0001325  83.4321 276.6822 15.08833125184115
STARLINK-3887           
1 52484U 22049AK  25238.21631705 -.00000833  00000+0 -34243-4 0  9990
2 52484  53.2163 216.6348 0001335  86.3406 273.7739 15.08837002182748
STARLINK-3913           
1 52485U 22049AL  25238.63309288  .00001717  00000+0  12594-3 0  9999
2 52485  53.2166 204.7639 0001521  95.1442 264.9724 15.08842828182948
STARLINK-3918           
1 52486U 22049AM  25238.67263135  .00000376  00000+0  41708-4 0  9994
2 52486  53.2167 214.5860 0001340  83.2969 276.8175 15.08841341182813
STARLINK-3902           
1 52487U 22049AN  25238.90908752 -.00000063  00000+0  14124-4 0  9998
2 52487  53.2170 203.6308 0001358  81.9621 278.1525 15.08840528184220
STARLINK-3892           
1 52488U 22049AP  25238.66897231  .00000084  00000+0  23374-4 0  9990
2 52488  53.2171 214.6018 0001458  87.2825 272.8334 15.08833492182812
STARLINK-3923           
1 52489U 22049AQ  25238.94128131  .00000574  00000+0  54135-4 0  9991
2 52489  53.2162 213.3808 0001325  86.3125 273.8019 15.08852863182850
STARLINK-3914           
1 52490U 22049AR  25238.94954230  .00001206  00000+0  93815-4 0  9991
2 52490  53.2178 203.3459 0001397  88.9106 271.2047 15.08849771182998
STARLINK-3908           
1 52491U 22049AS  25238.89067385  .00000464  00000+0  47250-4 0  9999
2 52491  53.2162 203.6093 0001536  70.6528 289.4630 15.08840726182989
STARLINK-3916           
1 52492U 22049AT  25238.61100215  .00000657  00000+0  59376-4 0  9996
2 52492  53.2167 204.8633 0001339  78.0194 282.0949 15.08845281182949
STARLINK-3883           
1 52493U 22049AU  25238.95324001  .00000958  00000+0  78268-4 0  9990
2 52493  53.2159 203.3270 0001312  88.1394 271.9748 15.08842842182996
STARLINK-3857           
1 52494U 22049AV  25238.93115685  .00000071  00000+0  22561-4 0  9996
2 52494  53.2162 203.4257 0001369  86.2792 273.8357 15.08836524182997
STARLINK-3871           
1 52496U 22049AX  25238.90033377  .00000171  00000+0  28833-4 0  9991
2 52496  53.2169 198.5632 0001394  87.4148 272.7003 15.08840734183055
STARLINK-3884           
1 52497U 22049AY  25238.93852257  .00000240  00000+0  33147-4 0  9992
2 52497  53.2163 203.3932 0001714  67.6487 292.4686 15.08845422182997
STARLINK-3925           
1 52498U 22049AZ  25238.31753001  .00001673  00000+0  12316-3 0  9997
2 52498  53.2167 196.1813 0001688  76.6777 283.4403 15.08843003183037
